[{"OBJECT_NAME":"STARLINK-31758","OBJECT_ID":"2024-080W","EPOCH":"2026-03-09T06:37:05.994048","MEAN_MOTION":15.27557412,"ECCENTRICITY":0.0002114,"INCLINATION":43.002,"RA_OF_ASC_NODE":36.4146,"ARG_OF_PERICENTER":253.3601,"MEAN_ANOMALY":106.7019,"EPHEMERIS_TYPE":0,"CLASSIFICATION_TYPE":"U","NORAD_CAT_ID":59621,"ELEMENT_SET_NO":999,"REV_AT_EPOCH":10451,"BSTAR":0.00019416381,"MEAN_MOTION_DOT":5.081e-5,"MEAN_MOTION_DDOT":0},{"OBJECT_NAME":"QAEM 100 R\/B","OBJECT_ID":"2024-165A","EPOCH":"2026-03-09T23:28:11.930304","MEAN_MOTION":15.14187295,"ECCENTRICITY":0.0059581,"INCLINATION":64.0756,"RA_OF_ASC_NODE":359.5576,"ARG_OF_PERICENTER":312.0209,"MEAN_ANOMALY":47.5844,"EPHEMERIS_TYPE":0,"CLASSIFICATION_TYPE":"U","NORAD_CAT_ID":61071,"ELEMENT_SET_NO":999,"REV_AT_EPOCH":8183,"BSTAR":0.0003372463,"MEAN_MOTION_DOT":6.252e-5,"MEAN_MOTION_DDOT":0}]
